ORBCOMM FM20            
1 25416U 98046D   24219.70459464  .00001487  00000+0  56063-3 0  9994
2 25416  44.9933 228.9115 0002105 288.3873  71.6745 14.35528098359043
ORBCOMM FM16            
1 25417U 98046E   24219.87762155  .00002328  00000+0  83173-3 0  9994
2 25417  44.9921 223.1583 0002402 196.3290 163.7481 14.36624207359015
ORBCOMM FM15            
1 25418U 98046F   24219.71265337  .00002293  00000+0  82451-3 0  9997
2 25418  44.9953 228.2138 0002328 204.4781 155.5956 14.36331599358997
ORBCOMM FM14            
1 25419U 98046G   24219.72572385  .00002301  00000+0  82414-3 0  9992
2 25419  44.9943 227.1321 0001195 233.9181 126.1555 14.36534344358959
ORBCOMM FM13            
1 25420U 98046H   24219.74845953  .00001771  00000+0  65539-3 0  9999
2 25420  44.9957 232.4189 0002592 162.3964 197.6974 14.35743343358018
ORBCOMM FM21            
1 25475U 98053A   24219.70475947  .00001918  00000+0  70738-3 0  9995
2 25475  45.0090 317.0850 0001552 219.7163 140.3571 14.35643630352027
ORBCOMM FM22            
1 25476U 98053B   24219.71734083  .00002497  00000+0  89553-3 0  9994
2 25476  45.0086 313.9270 0000880 153.7010 206.3882 14.36236423352022
ORBCOMM FM23            
1 25477U 98053C   24219.73003458  .00001845  00000+0  68179-3 0  9999
2 25477  45.0095 319.3599 0000949 183.9296 176.1544 14.35687611352177
